CUTE-1 (CO-55)          
1 27844U 03031E   26168.24792029  .00000228  00000+0  11738-3 0  9994
2 27844  98.6736 176.8060 0009542 177.7909 182.3314 14.24335742191686
CUBESAT XI-IV (CO-57)   
1 27848U 03031J   26167.95527529  .00000197  00000+0  10575-3 0  9999
2 27848  98.6766 176.2299 0009009 197.6805 162.4061 14.23620738191347
CUBESAT XI-V            
1 28895U 05043F   26167.38340975  .00001200  00000+0  19649-3 0  9999
2 28895  98.2985 322.9884 0013585 203.3717 156.6874 14.72629782101632
CUTE-1.7+APD II (CO-65) 
1 32785U 08021C   26168.51393807  .00003791  00000+0  24082-3 0  9993
2 32785  97.8273 149.9392 0009718  37.9511 322.2400 15.09453045985248
CANX-2                  
1 32790U 08021H   26168.42115961  .00003650  00000+0  25719-3 0  9994
2 32790  97.8639 148.2031 0011431  49.9885 310.2343 15.05620055984845
SEEDS II (CO-66)        
1 32791U 08021J   26167.93971588  .00015903  00000+0  50504-3 0  9999
2 32791  97.7513 165.8255 0001090   4.6274 355.4977 15.32745063987258
SWISSCUBE               
1 35932U 09051B   26168.30549632  .00000774  00000+0  16253-3 0  9999
2 35932  98.4035  76.1959 0005970 202.6029 157.4910 14.62481763889174
BEESAT-1                
1 35933U 09051C   26168.31499258  .00000655  00000+0  14128-3 0  9996
2 35933  98.3964  75.8408 0004229 216.3512 143.7401 14.61720657889209
ITUPSAT1                
1 35935U 09051E   26167.68937774  .00000621  00000+0  13815-3 0  9992
2 35935  98.4049  74.3979 0006243 235.8160 124.2448 14.60440072888669
TISAT 1                 
1 36799U 10035E   26167.92111727  .00017209  00000+0  56437-3 0  9991
2 36799  98.0714 114.4464 0001362 167.9890 192.1382 15.31700616867660
AEROCUBE 4.5A           
1 38767U 12048K   26167.97411803  .00429029  81714-4  10170-2 0  9993
2 38767  64.6234  27.6641 0019536 224.8957 135.0626 15.96100831372622
STRAND-1                
1 39090U 13009E   26168.40411720  .00000200  00000+0  81523-4 0  9990
2 39090  98.3921 348.6331 0007741 224.5373 135.5192 14.37163347697094
BRITE-AUSTRIA           
1 39091U 13009F   26168.41708633  .00000131  00000+0  59167-4 0  9996
2 39091  98.3994 347.8470 0009162 235.6981 124.3339 14.36542205697088
NEE-01 PEGASO           
1 39151U 13018B   26168.13162645  .00002236  00000+0  21710-3 0  9999
2 39151  98.1222 312.2794 0013099 159.5511 200.6235 14.93659532710690
POPACS 2                
1 39269U 13055E   26168.17649404  .00010961  00000+0  18529-3 0  9995
2 39269  80.9906 144.2043 0416853 193.8061 165.1479 14.91210375663210
POPACS 3                
1 39270U 13055F   26167.91331003  .00008396  00000+0  19719-3 0  9992
2 39270  81.0011 229.4846 0552172  70.8295 295.1804 14.56118366638515
ZACUBE-1 (TSHEPISOSAT)  
1 39417U 13066B   26168.47394243  .00002365  00000+0  18618-3 0  9991
2 39417  97.8080 130.8124 0040842 246.6808 113.0116 15.01189934680771
WNISAT-1                
1 39423U 13066H   26168.41697708  .00000712  00000+0  13843-3 0  9993
2 39423  97.7202 317.5569 0161981 230.8620 127.8090 14.58062523666767
TRITON-1                
1 39427U 13066M   26168.49821956  .00001041  00000+0  13050-3 0  9995
2 39427  97.8251  78.2987 0088504 232.9068 126.4032 14.81704613674139
GOMX-1                  
1 39430U 13066Q   26168.52643281  .00001508  00000+0  23101-3 0  9992
2 39430  97.6476   8.9676 0130181  76.4531 285.1140 14.69461350669962
CUBEBUG-2 (LO-74)       
1 39440U 13066AA  26168.39811619  .00003810  00000+0  35342-3 0  9998
2 39440  97.8909 117.3770 0058378  28.4148 332.0233 14.93763127677029
NEE-02 KRYSAOR          
1 39441U 13066AB  26168.34381616  .00001650  00000+0  18476-3 0  9992
2 39441  97.8894 107.5573 0067655  69.7150 291.1320 14.86618660676220
FUNCUBE-1 (AO-73)       
1 39444U 13066AE  26168.45428206  .00005112  00000+0  31861-3 0  9994
2 39444  97.8279 139.9057 0035653 199.8844 160.0997 15.09493115679706
UWE-3                   
1 39446U 13066AG  26168.41617328  .00003433  00000+0  29686-3 0  9993
2 39446  97.8697 124.4914 0047505 320.3944  39.3810 14.97025793677613
BRITE-CA1 (TORONTO)     
1 40020U 14033L   26168.30956233  .00000578  00000+0  94721-4 0  9997
2 40020  97.9739 297.2352 0077216 276.6204  82.6219 14.72676789642234
DUCHIFAT-1              
1 40021U 14033M   26168.08560661  .00086906  00000+0  89449-3 0  9998
2 40021  98.0464 227.2320 0003017 117.8101 242.3462 15.64575667655739
NANOSATC-BR1            
1 40024U 14033Q   26168.33610049  .00012879  00000+0  42640-3 0  9995
2 40024  98.0714 200.7372 0004399 161.8209 198.3188 15.31460569654007
QB50P1                  
1 40025U 14033R   26168.01826155  .00006622  00000+0  32676-3 0  9995
2 40025  98.0959 179.1525 0007771 215.7704 144.3009 15.18259399653008
QB50P2                  
1 40032U 14033Y   26168.49634505  .00005170  00000+0  27942-3 0  9998
2 40032  98.0748 165.3957 0008053 162.2116 197.9398 15.15161004652719
PERSEUS-M2              
1 40037U 14033AD  26168.53149095  .00001050  00000+0  10025-3 0  9990
2 40037  97.9962 119.0791 0010712 302.8835  57.1354 14.95508521650833
